0 MOZHAYETS 4
1 27939U 03042A   13282.48516556  .00000465  00000-0  95854-4 0  8387
2 27939 097.7984 104.3887 0012873 180.4603 179.6634 14.64592064536023
0 MOZHAYETS 4
1 27939U 03042A   13282.75844341  .00000470  00000-0  96810-4 0  8393
2 27939 097.7977 104.6478 0012868 179.6024 180.5198 14.64592350536063
0 MOZHAYETS 4
1 27939U 03042A   13283.10004122  .00000564  00000-0  11443-3 0  8402
2 27939 097.7978 104.9715 0012922 178.3960 181.7300 14.64593223536111
0 MOZHAYETS 4
1 27939U 03042A   13283.44163887  .00000708  00000-0  14163-3 0  8416
2 27939 097.7980 105.2954 0012929 177.2046 182.9272 14.64594503536161
0 MOZHAYETS 4
1 27939U 03042A   13283.57827715  .00000697  00000-0  13947-3 0  8413
2 27939 097.7978 105.4250 0012934 176.7621 183.3668 14.64594668536186
0 MOZHAYETS 4
1 27939U 03042A   13283.85155520  .00000798  00000-0  15856-3 0  8426
2 27939 097.7978 105.6841 0012981 176.0159 184.1170 14.64595558536226
0 MOZHAYETS 4
1 27939U 03042A   13284.12483215  .00000912  00000-0  17998-3 0  8430
2 27939 097.7982 105.9435 0012994 174.9831 185.1494 14.64596569536268
0 MOZHAYETS 4
1 27939U 03042A   13284.46642946  .00000937  00000-0  18463-3 0  8441
2 27939 097.7982 106.2672 0013014 173.8715 186.2658 14.64597374536313
0 MOZHAYETS 4
1 27939U 03042A   13285.42290055  .00000908  00000-0  17917-3 0  8472
2 27939 097.7976 107.1727 0013017 171.4217 188.7216 14.64598966536451
0 MOZHAYETS 4
1 27939U 03042A   13285.76449762  .00000763  00000-0  15185-3 0  8485
2 27939 097.7975 107.4967 0013086 170.1831 189.9633 14.64598822536506
0 MOZHAYETS 4
1 27939U 03042A   13286.03777426  .00000860  00000-0  17015-3 0  8490
2 27939 097.7980 107.7563 0013218 169.1276 191.0213 14.64599832536549
0 MOZHAYETS 4
1 27939U 03042A   13286.44769024  .00000787  00000-0  15648-3 0  8500
2 27939 097.7981 108.1450 0013271 167.8631 192.2894 14.64600103536608
0 MOZHAYETS 4
1 27939U 03042A   13286.58432879  .00000647  00000-0  13018-3 0  8515
2 27939 097.7974 108.2747 0013246 167.2851 192.8667 14.64599711536628
0 MOZHAYETS 4
1 27939U 03042A   13287.13088406  .00000599  00000-0  12108-3 0  8526
2 27939 097.7982 108.7935 0013239 165.3480 194.8108 14.64599928536701
0 MOZHAYETS 4
1 27939U 03042A   13287.47247948  .00000725  00000-0  14477-3 0  8534
2 27939 097.7981 109.1169 0013294 164.4326 195.7296 14.64601292536755
0 MOZHAYETS 4
1 27939U 03042A   13287.60911776  .00000769  00000-0  15306-3 0  8547
2 27939 097.7981 109.2465 0013329 164.0171 196.1459 14.64601647536770
0 MOZHAYETS 4
1 27939U 03042A   13288.08735191  .00000724  00000-0  14458-3 0  8554
2 27939 097.7984 109.7003 0013496 162.7312 197.4361 14.64602227536842
0 MOZHAYETS 4
1 27939U 03042A   13288.49726674  .00000780  00000-0  15502-3 0  8569
2 27939 097.7983 110.0889 0013402 161.2420 198.9285 14.64603146536908
0 MOZHAYETS 4
1 27939U 03042A   13288.77054315  .00000787  00000-0  15638-3 0  8574
2 27939 097.7981 110.3478 0013394 160.3820 199.7905 14.64603630536947
0 MOZHAYETS 4
1 27939U 03042A   13289.18045753  .00000820  00000-0  16267-3 0  8584
2 27939 097.7993 110.7371 0013426 159.0684 201.1079 14.64604479537005
0 MOZHAYETS 4
1 27939U 03042A   13289.52205256  .00000852  00000-0  16855-3 0  8597
2 27939 097.7993 111.0611 0013410 157.9856 202.1933 14.64605281537054
0 MOZHAYETS 4
1 27939U 03042A   13289.72700938  .00000866  00000-0  17127-3 0  8606
2 27939 097.7990 111.2550 0013504 157.5192 202.6608 14.64605675537082
0 MOZHAYETS 4
1 27939U 03042A   13290.06860418  .00000809  00000-0  16054-3 0  8611
2 27939 097.7993 111.5794 0013554 156.4798 203.7022 14.64606066537136
0 MOZHAYETS 4
1 27939U 03042A   13290.34188019  .00001025  00000-0  20109-3 0  8620
2 27939 097.7993 111.8386 0013487 155.3191 204.8689 14.64607601537177
0 MOZHAYETS 4
1 27939U 03042A   13290.68347419  .00001004  00000-0  19720-3 0  8633
2 27939 097.7990 112.1627 0013459 154.1485 206.0386 14.64608167537220
0 MOZHAYETS 4
1 27939U 03042A   13290.75179323  .00001008  00000-0  19794-3 0  8644
2 27939 097.7989 112.2274 0013479 153.8988 206.2897 14.64608332537237
0 MOZHAYETS 4
1 27939U 03042A   13291.09338753  .00000980  00000-0  19274-3 0  8658
2 27939 097.7991 112.5514 0013486 152.8933 207.2981 14.64608973537288
0 MOZHAYETS 4
1 27939U 03042A   13291.43498166  .00001084  00000-0  21225-3 0  8667
2 27939 097.7990 112.8751 0013449 151.6468 208.5483 14.64610163537333
0 MOZHAYETS 4
1 27939U 03042A   13291.70825681  .00000994  00000-0  19533-3 0  8672
2 27939 097.7990 113.1342 0013513 150.8819 209.3140 14.64610270537378
0 MOZHAYETS 4
1 27939U 03042A   13292.04985069  .00001057  00000-0  20708-3 0  8685
2 27939 097.7992 113.4583 0013444 149.6700 210.5286 14.64611227537422
0 MOZHAYETS 4
1 27939U 03042A   13292.52808143  .00001001  00000-0  19651-3 0  8690
2 27939 097.7987 113.9120 0013509 147.9423 212.2583 14.64612053537497
0 MOZHAYETS 4
1 27939U 03042A   13293.07463101  .00000921  00000-0  18154-3 0  8701
2 27939 097.7990 114.4299 0013532 146.4176 213.7869 14.64612792537571
0 MOZHAYETS 4
1 27939U 03042A   13293.34790648  .00001042  00000-0  20421-3 0  8716
2 27939 097.7987 114.6884 0013551 145.4443 214.7687 14.64613905537617
0 MOZHAYETS 4
1 27939U 03042A   13293.75781724  .00001009  00000-0  19805-3 0  8724
2 27939 097.7981 115.0777 0013537 143.9983 216.2137 14.64614716537677
0 MOZHAYETS 4
1 27939U 03042A   13293.96277270  .00001012  00000-0  19875-3 0  8735
2 27939 097.7984 115.2722 0013561 143.5150 216.6979 14.64615176537704
0 MOZHAYETS 4
1 27939U 03042A   13294.50932105  .00001013  00000-0  19880-3 0  8749
2 27939 097.7977 115.7898 0013559 141.6474 218.5702 14.64616359537787
0 MOZHAYETS 4
1 27939U 03042A   13294.71427639  .00000939  00000-0  18497-3 0  8753
2 27939 097.7977 115.9839 0013580 141.0412 219.1750 14.64616299537811
0 MOZHAYETS 4
1 27939U 03042A   13295.05586925  .00000911  00000-0  17968-3 0  8768
2 27939 097.7974 116.3076 0013616 139.9470 220.2734 14.64616802537866
0 MOZHAYETS 4
1 27939U 03042A   13295.39746198  .00000848  00000-0  16783-3 0  8779
2 27939 097.7972 116.6309 0013615 139.0910 221.1326 14.64617101537911
0 MOZHAYETS 4
1 27939U 03042A   13295.73905357  .00000826  00000-0  16364-3 0  8783
2 27939 097.7972 116.9566 0013730 138.5424 221.6830 14.64617694537968
0 MOZHAYETS 4
1 27939U 03042A   13296.14896388  .00000792  00000-0  15725-3 0  8795
2 27939 097.7978 117.3457 0013766 137.3523 222.8741 14.64618140538023
